OBJECT_NAME,OBJECT_ID,EPOCH,MEAN_MOTION,ECCENTRICITY,INCLINATION,RA_OF_ASC_NODE,ARG_OF_PERICENTER,MEAN_ANOMALY,EPHEMERIS_TYPE,CLASSIFICATION_TYPE,NORAD_CAT_ID,ELEMENT_SET_NO,REV_AT_EPOCH,BSTAR,MEAN_MOTION_DOT,MEAN_MOTION_DDOT
STARLINK-5737,2023-020B,2025-07-20T16:11:38.978016,15.02529276,.0001202,43.0019,185.7420,262.1261,97.9445,0,U,55570,999,13401,.22271E-3,.2806E-4,0
STARLINK-5739,2023-020C,2025-07-21T00:02:17.086560,15.02534654,.0001044,43.0015,183.8941,277.0177,83.0547,0,U,55571,999,13406,-.12483E-5,-.22E-5,0
STARLINK-5732,2023-020D,2025-07-21T09:30:15.438528,15.02534508,.0001063,43.0026,181.6903,278.1563,81.9159,0,U,55572,999,13412,-.18213E-4,-.45E-5,0
STARLINK-5738,2023-020E,2025-07-20T15:58:50.559744,15.02533925,.0001234,43.0022,185.6758,288.4357,71.6351,0,U,55573,999,13401,.12657E-4,-.33E-6,0
STARLINK-5747,2023-020F,2025-07-20T15:44:27.595680,15.02532697,.0001213,43.0025,185.5993,276.6776,83.3928,0,U,55574,999,13401,-.11458E-4,-.358E-5,0
STARLINK-5745,2023-020G,2025-07-21T07:49:43.913280,15.02532959,.0001046,43.0016,182.0241,281.6681,78.4044,0,U,55575,999,13411,.26594E-4,.156E-5,0
STARLINK-5751,2023-020H,2025-07-21T04:00:39.701952,15.02534986,.000092,43.0029,156.5650,276.2416,83.8322,0,U,55576,999,13439,.28359E-5,-.165E-5,0
STARLINK-5752,2023-020J,2025-07-21T09:20:39.405408,15.02532580,.0001224,43.0028,181.5764,275.8977,84.1726,0,U,55577,999,13412,-.21117E-4,-.489E-5,0
STARLINK-5754,2023-020L,2025-07-20T23:17:31.368480,15.02533663,.0001157,43.0022,183.6589,268.4600,91.6109,0,U,55579,999,13406,.18233E-4,.43E-6,0
STARLINK-5757,2023-020M,2025-07-20T13:35:54.360960,15.02535916,.0001146,43.0030,159.8000,280.8422,79.2292,0,U,55580,999,13430,.52353E-4,.504E-5,0
STARLINK-5753,2023-020N,2025-07-20T23:38:18.304512,15.02533199,.0001175,43.0030,183.7656,283.2677,76.8034,0,U,55581,999,13406,.72611E-5,-.106E-5,0
STARLINK-5741,2023-020P,2025-07-20T07:57:23.228640,15.02530452,.0000917,43.0025,174.4988,314.5675,45.5092,0,U,55582,999,13411,.12554E-4,-.34E-6,0
STARLINK-5742,2023-020Q,2025-07-21T09:03:05.062752,15.02535700,.0001025,43.0023,181.5508,287.8939,72.1792,0,U,55583,999,13412,.31485E-4,.222E-5,0
STARLINK-5736,2023-020R,2025-07-21T05:48:25.859808,15.02525444,.0001007,43.0027,182.2552,280.6370,79.4359,0,U,55584,999,13410,.4203E-4,.364E-5,0
STARLINK-5769,2023-020S,2025-07-20T14:36:16.820928,15.02533654,.0001159,43.0025,173.1447,267.2177,92.8533,0,U,55585,999,13415,.25302E-4,.138E-5,0
STARLINK-5767,2023-020T,2025-07-21T05:37:14.448000,15.02540706,.0001305,43.0028,182.1988,283.4111,76.6586,0,U,55586,999,13410,-.12833E-4,-.377E-5,0
STARLINK-5727,2023-020U,2025-07-20T15:23:40.076448,15.02533145,.0001161,43.0024,185.4290,279.2935,80.7776,0,U,55587,999,13401,.32391E-4,.234E-5,0
STARLINK-5728,2023-020V,2025-07-21T05:27:39.042144,15.02535644,.000132,43.0034,182.1493,278.0255,82.0438,0,U,55588,999,13410,.14101E-4,-.13E-6,0
STARLINK-5697,2023-020W,2025-07-21T00:48:27.707328,15.02542692,.000104,43.0037,183.2701,280.7965,79.2760,0,U,55589,999,13407,.33748E-4,.252E-5,0
STARLINK-5762,2023-020X,2025-07-21T05:18:03.726144,15.02534986,.0001281,43.0034,182.1005,279.5366,80.5332,0,U,55590,999,13410,.95764E-5,-.74E-6,0
STARLINK-5760,2023-020Y,2025-07-21T07:08:10.322016,15.02535653,.000114,43.0023,181.8124,274.9783,85.0929,0,U,55591,999,13411,-.48957E-5,-.27E-5,0
STARLINK-5759,2023-020Z,2025-07-21T05:11:40.473888,15.02530162,.0001174,43.0030,182.0681,276.5866,83.4843,0,U,55592,999,13410,-.16224E-4,-.423E-5,0
STARLINK-5703,2023-020AA,2025-07-21T05:22:51.350016,15.02534784,.0001124,43.0028,182.1241,284.3109,75.7609,0,U,55593,999,13410,.49461E-5,-.137E-5,0
STARLINK-5750,2023-020AB,2025-07-20T16:21:02.965248,15.02536544,.0001584,43.0035,184.9306,266.0108,94.0553,0,U,55594,999,13402,-.39614E-4,-.739E-5,0
STARLINK-5740,2023-020AC,2025-07-18T08:32:20.556672,16.14217831,.000381,42.9992,164.2585,240.4192,241.5060,0,U,55595,999,13405,.65069E-3,.849632E-2,.44059E-3
STARLINK-5729,2023-020AD,2025-07-20T16:17:51.252288,15.02539838,.0001511,43.0024,184.9167,309.5202,50.5507,0,U,55596,999,13402,.10427E-4,-.63E-6,0
STARLINK-5743,2023-020AE,2025-07-21T04:53:03.025536,15.02526563,.000105,43.0023,169.8687,279.0534,81.0190,0,U,55597,999,13424,-.74008E-4,-.1203E-4,0
STARLINK-5756,2023-020AF,2025-07-21T05:07:24.761856,15.02537075,.0001272,43.0015,169.9101,275.1246,84.9451,0,U,55598,999,13424,-.46527E-4,-.832E-5,0
STARLINK-5761,2023-020AG,2025-07-20T14:41:05.332992,15.02533951,.0001205,43.0024,173.1359,261.1556,98.9150,0,U,55599,999,13415,.59723E-4,.603E-5,0
STARLINK-5755,2023-020AH,2025-07-21T04:45:02.681280,15.02535322,.0000954,43.0028,169.8077,271.9854,88.0879,0,U,55600,999,13424,.22191E-5,-.174E-5,0
STARLINK-5744,2023-020AJ,2025-07-20T16:13:03.359712,15.02537655,.0001391,43.0023,184.8891,285.2169,74.8519,0,U,55601,999,13402,-.44547E-4,-.805E-5,0
STARLINK-5764,2023-020AK,2025-07-21T09:46:36.592608,15.02532985,.0001064,43.0027,168.7813,285.4062,74.6662,0,U,55602,999,13427,.31743E-4,.225E-5,0
STARLINK-5735,2023-020AL,2025-07-21T04:49:50.128896,15.02535542,.0001253,43.0031,169.8358,285.3919,74.6785,0,U,55603,999,13424,.44589E-4,.399E-5,0
STARLINK-5748,2023-020AM,2025-07-21T04:05:27.656736,15.02530316,.0001036,43.0026,156.5978,271.6368,88.4356,0,U,55604,999,13439,-.83905E-5,-.317E-5,0
STARLINK-5725,2023-020AN,2025-07-21T04:43:26.709888,15.02535419,.0000977,43.0027,169.8021,285.7163,74.3572,0,U,55605,999,13424,.81645E-5,-.93E-6,0
STARLINK-5700,2023-020AQ,2025-07-20T07:49:23.235168,15.02536014,.0001036,43.0027,174.4489,283.6452,76.4275,0,U,55607,999,13411,.18849E-4,.51E-6,0
STARLINK-5726,2023-020AR,2025-07-21T04:30:39.528000,15.02535560,.0001047,43.0029,169.7371,270.5251,89.5472,0,U,55608,999,13424,.41194E-4,.353E-5,0
STARLINK-5719,2023-020AS,2025-07-21T04:38:38.983200,15.02534741,.0001314,43.0028,169.7741,284.4583,75.6113,0,U,55609,999,13424,.89462E-5,-.83E-6,0
STARLINK-5722,2023-020AT,2025-07-20T15:33:38.809440,15.02533811,.000111,43.0028,172.5670,283.2826,76.7893,0,U,55610,999,13416,.14178E-4,-.12E-6,0
STARLINK-5730,2023-020AU,2025-07-21T04:16:16.597632,15.02533109,.0001242,43.0027,169.6623,281.2100,78.8602,0,U,55611,999,13424,-.63569E-5,-.289E-5,0
STARLINK-5734,2023-020AV,2025-07-20T21:51:45.390528,15.02538419,.0001145,43.0025,171.0995,285.0366,75.0349,0,U,55612,999,13420,.26174E-4,.15E-5,0
STARLINK-5715,2023-020AW,2025-07-20T15:40:02.155008,15.02536756,.000125,43.0029,172.6032,282.5984,77.4719,0,U,55613,999,13416,.17633E-4,.35E-6,0
STARLINK-5714,2023-020AX,2025-07-21T05:57:01.882944,15.02575661,.0001068,43.0024,156.2829,288.2474,71.8252,0,U,55614,999,13440,.11481E-3,.1349E-4,0
STARLINK-5712,2023-020AY,2025-07-21T04:09:53.287488,15.02534594,.0001275,43.0030,169.6299,273.4754,86.5942,0,U,55615,999,13424,.71582E-4,.763E-5,0
STARLINK-5710,2023-020AZ,2025-07-20T15:11:16.118880,15.02535141,.0001077,43.0023,172.4525,283.4104,76.6618,0,U,55616,999,13416,.23753E-4,.117E-5,0
STARLINK-5721,2023-020BA,2025-07-21T07:16:32.862432,15.02532889,.0001142,43.0019,168.8820,293.0830,66.9892,0,U,55617,999,13426,.21247E-4,.83E-6,0
STARLINK-5717,2023-020BB,2025-07-20T15:09:40.248576,15.02536024,.0001094,43.0028,172.4441,280.0903,79.9816,0,U,55618,999,13416,.59906E-4,.606E-5,0
STARLINK-5720,2023-020BC,2025-07-20T23:03:32.425344,15.02528596,.0001193,43.0026,170.6126,278.8171,81.2536,0,U,55619,999,13421,.59684E-4,.603E-5,0
STARLINK-5718,2023-020BD,2025-07-20T15:00:05.125248,15.02531847,.0001091,43.0023,172.3919,270.3894,89.6823,0,U,55620,999,13416,-.16331E-4,-.424E-5,0
STARLINK-5709,2023-020BE,2025-07-20T23:14:42.291456,15.02533983,.0001096,43.0027,170.6714,289.7243,70.3481,0,U,55621,999,13421,.19788E-4,.64E-6,0
STARLINK-5702,2023-020BF,2025-07-20T22:55:31.387296,15.02536062,.0001072,43.0027,170.5723,289.4408,70.6319,0,U,55622,999,13421,.24821E-4,.132E-5,0
STARLINK-5698,2023-020BG,2025-07-21T08:23:30.406272,15.02532358,.0001242,43.0028,168.3690,277.4672,82.6029,0,U,55623,999,13427,.85312E-6,-.192E-5,0
STARLINK-5484,2023-021A,2025-07-21T08:23:59.081568,14.98329929,.0002775,70.0000,67.8328,268.9907,91.0935,0,U,55628,999,13334,.95629E-5,.21E-6,0
STARLINK-5497,2023-021B,2025-07-20T22:53:12.599520,14.98317113,.0002912,69.9998,68.8586,269.3591,90.7234,0,U,55629,999,13358,-.14854E-3,-.1864E-4,0
STARLINK-5303,2023-021C,2025-07-21T08:17:58.296768,14.98329626,.0002872,69.9998,67.8177,269.4489,90.6341,0,U,55630,999,13334,.12549E-4,.57E-6,0
STARLINK-5558,2023-021D,2025-07-20T22:05:05.821728,14.98332460,.0002785,69.9998,68.7372,270.2332,89.8508,0,U,55631,999,13358,.22417E-4,.175E-5,0
STARLINK-5546,2023-021E,2025-07-20T22:00:01.999584,14.98326176,.0002755,70.0018,68.8471,273.9700,337.1142,0,U,55632,999,576,.7959E-3,.9415E-4,0
STARLINK-5498,2023-021F,2025-07-21T01:35:24.323136,14.98330644,.0002792,70.0004,68.4440,272.5438,87.5402,0,U,55633,999,13330,-.18947E-3,-.2353E-4,0
STARLINK-5500,2023-021G,2025-07-21T01:41:38.945760,14.98332044,.0002732,70.0000,68.4612,271.4597,88.6249,0,U,55634,999,13330,.78508E-5,.1E-7,0
STARLINK-5495,2023-021H,2025-07-20T21:58:45.976224,14.98331128,.0002973,69.9999,48.8544,264.6795,95.4025,0,U,55635,999,13407,.36676E-4,.345E-5,0
STARLINK-5218,2023-021J,2025-07-21T01:23:22.576416,14.98332782,.0002977,69.9996,68.4158,268.7628,91.3190,0,U,55636,999,13330,.78436E-5,.1E-7,0
STARLINK-5062,2023-021K,2025-07-20T22:22:48.625536,14.98331077,.0002746,70.0000,48.9097,269.8649,90.2195,0,U,55637,999,13407,.23501E-4,.187E-5,0
STARLINK-5507,2023-021L,2025-07-21T07:53:55.777920,14.98327552,.0002887,69.9993,67.7575,270.5393,89.5435,0,U,55638,999,13334,-.57099E-4,-.774E-5,0
STARLINK-5508,2023-021M,2025-07-21T07:29:47.998176,14.98330168,.0002661,69.9999,47.8270,270.3561,89.7293,0,U,55639,999,13383,.11438E-4,.44E-6,0
STARLINK-5069,2023-021N,2025-07-20T21:46:44.751360,14.98331153,.0002861,69.9996,48.8199,269.0270,91.0561,0,U,55640,999,13407,.57959E-5,-.24E-6,0
STARLINK-5065,2023-021P,2025-07-20T22:28:49.304928,14.98330665,.0002907,70.0000,48.9209,270.3074,89.7752,0,U,55641,999,13407,.32167E-5,-.55E-6,0
